[{"OBJECT_NAME":"STARLINK-1606","OBJECT_ID":"2020-057AD","EPOCH":"2026-03-10T00:00:02.999808","MEAN_MOTION":15.64500481,"ECCENTRICITY":8.054e-5,"INCLINATION":53.0442,"RA_OF_ASC_NODE":254.9162,"ARG_OF_PERICENTER":223.0562,"MEAN_ANOMALY":90.1907,"EPHEMERIS_TYPE":0,"CLASSIFICATION_TYPE":"U","NORAD_CAT_ID":46144,"ELEMENT_SET_NO":999,"REV_AT_EPOCH":589,"BSTAR":0.0018582758,"MEAN_MOTION_DOT":0.00185928,"MEAN_MOTION_DDOT":0},{"OBJECT_NAME":"CZ-2C R\/B","OBJECT_ID":"2004-012C","EPOCH":"2026-03-09T17:41:22.317504","MEAN_MOTION":15.64506189,"ECCENTRICITY":0.00129222,"INCLINATION":97.7227,"RA_OF_ASC_NODE":134.0339,"ARG_OF_PERICENTER":309.1452,"MEAN_ANOMALY":50.8657,"EPHEMERIS_TYPE":0,"CLASSIFICATION_TYPE":"U","NORAD_CAT_ID":28222,"ELEMENT_SET_NO":999,"REV_AT_EPOCH":20428,"BSTAR":0.00056669008,"MEAN_MOTION_DOT":0.00054864,"MEAN_MOTION_DDOT":0}]
